TIANMU-1 08             
1 57400U 23101B   26066.00237819  .00000346  00000+0  14775-4 0  9993
2 57400  97.2717 118.7901 0006380 134.2174 225.9592 15.29204229146020
STARLINK-35041          
1 66188U 25243M   26068.76185840  .00025029  00000+0  85425-3 0  9990
2 66188  53.1586 245.0016 0000905 118.8471 241.2620 15.30203824 20660
